{
  "norad_id": 66375,
  "name": "STARLINK-35826",
  "history": [
    {
      "epoch": "2026-03-28T21:04:06.397248",
      "apogee_km": 476.2420211959952,
      "perigee_km": 474.1997205504749,
      "latitude_deg": -46.92046801146056,
      "longitude_deg": -178.2262252799701,
      "semi_major_axis_km": 6853.357870873235,
      "eccentricity": 0.000149,
      "inclination_deg": 53.1601,
      "raan_deg": 140.4259,
      "arg_perigee_deg": 83.1916,
      "mean_anomaly_deg": 276.9255,
      "mean_motion_rev_day": 15.30198057
    }
  ]
}